CTC2_L_00372001-01
1 49867U 23590WC  26070.40847222  .00000000  00000+0  00000-0 0  9996
2 49867  75.0000   0.0000 0000000   0.0000   0.0000 13.16009679    11
CTC2_L_00372001-02
1 49868U 24137KW  26070.40847222  .00000000  00000+0  00000-0 0  9995
2 49868  75.0000   0.0000 0000000   0.0000  90.0000 13.16009679    11
CTC2_L_00372001-03
1 49869U 23026VW  26070.40847222  .00000000  00000+0  00000-0 0  9992
2 49869  75.0000   0.0000 0000000   0.0000 180.0000 13.16009679    12
CTC2_L_00372001-04
1 49870U 24591FU  26070.40847222  .00000000  00000+0  00000-0 0  9992
2 49870  75.0000   0.0000 0000000   0.0000 270.0000 13.16009679    14
CTC2_L_00372002-01
1 49871U 24703AG  26070.40847222  .00000000  00000+0  00000-0 0  9998
2 49871  75.0000  12.0000 0000000   0.0000  12.0000 13.16009679    12
CTC2_L_00372002-02
1 49872U 22410EB  26070.40847222  .00000000  00000+0  00000-0 0  9992
2 49872  75.0000  12.0000 0000000   0.0000 102.0000 13.16009679    13
CTC2_L_00372002-03
1 49873U 22732LE  26070.40847222  .00000000  00000+0  00000-0 0  9990
2 49873  75.0000  12.0000 0000000   0.0000 192.0000 13.16009679    13
CTC2_L_00372002-04
1 49874U 26494SN  26070.40847222  .00000000  00000+0  00000-0 0  9990
2 49874  75.0000  12.0000 0000000   0.0000 282.0000 13.16009679    14
CTC2_L_00372003-01
1 49875U 26809RJ  26070.40847222  .00000000  00000+0  00000-0 0  9991
2 49875  75.0000  24.0000 0000000   0.0000  24.0000 13.16009679    12
CTC2_L_00372003-02
1 49876U 22337SL  26070.40847222  .00000000  00000+0  00000-0 0  9994
2 49876  75.0000  24.0000 0000000   0.0000 114.0000 13.16009679    13
CTC2_L_00372003-03
1 49877U 25178QX  26070.40847222  .00000000  00000+0  00000-0 0  9991
2 49877  75.0000  24.0000 0000000   0.0000 204.0000 13.16009679    14
CTC2_L_00372003-04
1 49878U 25253GY  26070.40847222  .00000000  00000+0  00000-0 0  9996
2 49878  75.0000  24.0000 0000000   0.0000 294.0000 13.16009679    14
CTC2_L_00372004-01
1 49879U 26408BV  26070.40847222  .00000000  00000+0  00000-0 0  9990
2 49879  75.0000  36.0000 0000000   0.0000  36.0000 13.16009679    12
CTC2_L_00372004-02
1 49880U 23374TV  26070.40847222  .00000000  00000+0  00000-0 0  9991
2 49880  75.0000  36.0000 0000000   0.0000 126.0000 13.16009679    14
CTC2_L_00372004-03
1 49881U 25509UY  26070.40847222  .00000000  00000+0  00000-0 0  9994
2 49881  75.0000  36.0000 0000000   0.0000 216.0000 13.16009679    15
CTC2_L_00372004-04
1 49882U 26360OD  26070.40847222  .00000000  00000+0  00000-0 0  9991
2 49882  75.0000  36.0000 0000000   0.0000 306.0000 13.16009679    16
CTC2_L_00372005-01
1 49883U 22285AJ  26070.40847222  .00000000  00000+0  00000-0 0  9994
2 49883  75.0000  48.0000 0000000   0.0000  48.0000 13.16009679    13
CTC2_L_00372005-02
1 49884U 24639ID  26070.40847222  .00000000  00000+0  00000-0 0  9990
2 49884  75.0000  48.0000 0000000   0.0000 138.0000 13.16009679    14
CTC2_L_00372005-03
1 49885U 26851LL  26070.40847222  .00000000  00000+0  00000-0 0  9999
2 49885  75.0000  48.0000 0000000   0.0000 228.0000 13.16009679    15
CTC2_L_00372005-04
1 49886U 25574FL  26070.40847222  .00000000  00000+0  00000-0 0  9991
2 49886  75.0000  48.0000 0000000   0.0000 318.0000 13.16009679    16
CTC2_L_00372006-01
1 49887U 24975AX  26070.40847222  .00000000  00000+0  00000-0 0  9996
2 49887  75.0000  60.0000 0000000   0.0000  60.0000 13.16009679    15
CTC2_L_00372006-02
1 49888U 25562AX  26070.40847222  .00000000  00000+0  00000-0 0  9990
2 49888  75.0000  60.0000 0000000   0.0000 150.0000 13.16009679    16
CTC2_L_00372006-03
1 49889U 23523SB  26070.40847222  .00000000  00000+0  00000-0 0  9996
2 49889  75.0000  60.0000 0000000   0.0000 240.0000 13.16009679    17
CTC2_L_00372006-04
1 49890U 25773BK  26070.40847222  .00000000  00000+0  00000-0 0  9997
2 49890  75.0000  60.0000 0000000   0.0000 330.0000 13.16009679    19
CTC2_L_00372007-01
1 49891U 26729IJ  26070.40847222  .00000000  00000+0  00000-0 0  9990
2 49891  75.0000  72.0000 0000000   0.0000  72.0000 13.16009679    16
CTC2_L_00372007-02
1 49892U 26364LB  26070.40847222  .00000000  00000+0  00000-0 0  9996
2 49892  75.0000  72.0000 0000000   0.0000 162.0000 13.16009679    17
CTC2_L_00372007-03
1 49893U 22044AX  26070.40847222  .00000000  00000+0  00000-0 0  9998
2 49893  75.0000  72.0000 0000000   0.0000 252.0000 13.16009679    18
CTC2_L_00372007-04
1 49894U 25666TC  26070.40847222  .00000000  00000+0  00000-0 0  9992
2 49894  75.0000  72.0000 0000000   0.0000 342.0000 13.16009679    19
CTC2_L_00372008-01
1 49895U 22754XB  26070.40847222  .00000000  00000+0  00000-0 0  9998
2 49895  75.0000  84.0000 0000000   0.0000  84.0000 13.16009679    16
CTC2_L_00372008-02
1 49896U 23383NZ  26070.40847222  .00000000  00000+0  00000-0 0  9998
2 49896  75.0000  84.0000 0000000   0.0000 174.0000 13.16009679    17
CTC2_L_00372008-03
1 49897U 26380YS  26070.40847222  .00000000  00000+0  00000-0 0  9999
2 49897  75.0000  84.0000 0000000   0.0000 264.0000 13.16009679    18
CTC2_L_00372008-04
1 49898U 26913TD  26070.40847222  .00000000  00000+0  00000-0 0  9992
2 49898  75.0000  84.0000 0000000   0.0000 354.0000 13.16009679    19
CTC2_L_00372009-01
1 49899U 25750IP  26070.40847222  .00000000  00000+0  00000-0 0  9991
2 49899  75.0000  96.0000 0000000   0.0000  96.0000 13.16009679    16
CTC2_L_00372009-02
1 49900U 24026EE  26070.40847222  .00000000  00000+0  00000-0 0  9999
2 49900  75.0000  96.0000 0000000   0.0000 186.0000 13.16009679    19
CTC2_L_00372009-03
1 49901U 22784JI  26070.40847222  .00000000  00000+0  00000-0 0  9999
2 49901  75.0000  96.0000 0000000   0.0000 276.0000 13.16009679    10
CTC2_L_00372009-04
1 49902U 23212VV  26070.40847222  .00000000  00000+0  00000-0 0  9997
2 49902  75.0000  96.0000 0000000   0.0000   6.0000 13.16009679    12
CTC2_L_00372010-01
1 49903U 25239XU  26070.40847222  .00000000  00000+0  00000-0 0  9999
2 49903  75.0000 108.0000 0000000   0.0000 108.0000 13.16009679    10
CTC2_L_00372010-02
1 49904U 25956DO  26070.40847222  .00000000  00000+0  00000-0 0  9996
2 49904  75.0000 108.0000 0000000   0.0000 198.0000 13.16009679    10
CTC2_L_00372010-03
1 49905U 26005X   26070.40847222  .00000000  00000+0  00000-0 0  9993
2 49905  75.0000 108.0000 0000000   0.0000 288.0000 13.16009679    11
CTC2_L_00372010-04
1 49906U 24162QE  26070.40847222  .00000000  00000+0  00000-0 0  9996
2 49906  75.0000 108.0000 0000000   0.0000  18.0000 13.16009679    13
CTC2_L_00372011-01
1 49907U 22468BD  26070.40847222  .00000000  00000+0  00000-0 0  9994
2 49907  75.0000 120.0000 0000000   0.0000 120.0000 13.16009679    12
CTC2_L_00372011-02
1 49908U 24902MX  26070.40847222  .00000000  00000+0  00000-0 0  9990
2 49908  75.0000 120.0000 0000000   0.0000 210.0000 13.16009679    13
CTC2_L_00372011-03
1 49909U 26670KH  26070.40847222  .00000000  00000+0  00000-0 0  9995
2 49909  75.0000 120.0000 0000000   0.0000 300.0000 13.16009679    14
CTC2_L_00372011-04
1 49910U 23671WM  26070.40847222  .00000000  00000+0  00000-0 0  9995
2 49910  75.0000 120.0000 0000000   0.0000  30.0000 13.16009679    16
CTC2_L_00372012-01
1 49911U 23307FR  26070.40847222  .00000000  00000+0  00000-0 0  9992
2 49911  75.0000 132.0000 0000000   0.0000 132.0000 13.16009679    13
CTC2_L_00372012-02
1 49912U 23439VU  26070.40847222  .00000000  00000+0  00000-0 0  9999
2 49912  75.0000 132.0000 0000000   0.0000 222.0000 13.16009679    14
CTC2_L_00372012-03
1 49913U 22333XH  26070.40847222  .00000000  00000+0  00000-0 0  9992
2 49913  75.0000 132.0000 0000000   0.0000 312.0000 13.16009679    15
CTC2_L_00372012-04
1 49914U 25719HV  26070.40847222  .00000000  00000+0  00000-0 0  9994
2 49914  75.0000 132.0000 0000000   0.0000  42.0000 13.16009679    16
CTC2_L_00372013-01
1 49915U 26644QY  26070.40847222  .00000000  00000+0  00000-0 0  9993
2 49915  75.0000 144.0000 0000000   0.0000 144.0000 13.16009679    13
CTC2_L_00372013-02
1 49916U 22030LQ  26070.40847222  .00000000  00000+0  00000-0 0  9999
2 49916  75.0000 144.0000 0000000   0.0000 234.0000 13.16009679    14
CTC2_L_00372013-03
1 49917U 26270K   26070.40847222  .00000000  00000+0  00000-0 0  9990
2 49917  75.0000 144.0000 0000000   0.0000 324.0000 13.16009679    15
CTC2_L_00372013-04
1 49918U 24388RK  26070.40847222  .00000000  00000+0  00000-0 0  9999
2 49918  75.0000 144.0000 0000000   0.0000  54.0000 13.16009679    16
CTC2_L_00372014-01
1 49919U 25856CW  26070.40847222  .00000000  00000+0  00000-0 0  9991
2 49919  75.0000 156.0000 0000000   0.0000 156.0000 13.16009679    13
CTC2_L_00372014-02
1 49920U 25112NP  26070.40847222  .00000000  00000+0  00000-0 0  9998
2 49920  75.0000 156.0000 0000000   0.0000 246.0000 13.16009679    15
CTC2_L_00372014-03
1 49921U 25769MO  26070.40847222  .00000000  00000+0  00000-0 0  9997
2 49921  75.0000 156.0000 0000000   0.0000 336.0000 13.16009679    16
CTC2_L_00372014-04
1 49922U 23595TK  26070.40847222  .00000000  00000+0  00000-0 0  9993
2 49922  75.0000 156.0000 0000000   0.0000  66.0000 13.16009679    17
CTC2_L_00372015-01
1 49923U 22739FF  26070.40847222  .00000000  00000+0  00000-0 0  9993
2 49923  75.0000 168.0000 0000000   0.0000 168.0000 13.16009679    14
CTC2_L_00372015-02
1 49924U 26145HJ  26070.40847222  .00000000  00000+0  00000-0 0  9999
2 49924  75.0000 168.0000 0000000   0.0000 258.0000 13.16009679    15
CTC2_L_00372015-03
1 49925U 26373SA  26070.40847222  .00000000  00000+0  00000-0 0  9993
2 49925  75.0000 168.0000 0000000   0.0000 348.0000 13.16009679    16
CTC2_L_00372015-04
1 49926U 24063KU  26070.40847222  .00000000  00000+0  00000-0 0  9998
2 49926  75.0000 168.0000 0000000   0.0000  78.0000 13.16009679    17
CTC2_L_00372016-01
1 49927U 25582IY  26070.40847222  .00000000  00000+0  00000-0 0  9996
2 49927  75.0000 180.0000 0000000   0.0000 180.0000 13.16009679    16
CTC2_L_00372016-02
1 49928U 25751I   26070.40847222  .00000000  00000+0  00000-0 0  9995
2 49928  75.0000 180.0000 0000000   0.0000 270.0000 13.16009679    17
